start=new Date('2022-08-24T00:00:00.000Z').valueOf();
sats=[{"COUNTRY_CODE":"US","MEAN_MOTION_DOT":"-0.01213966","MEAN_ANOMALY":"217.5644","TLE_LINE2":"2 53225  97.6555 295.8265 0001888 122.2022 217.5644 15.39138034  1309","OBJECT_TYPE":"PAYLOAD","FILE":"3545624","MEAN_MOTION":"15.39138034","EPHEMERIS_TYPE":"0","ECCENTRICITY":"0.00018880","PERIOD":"93.559","DECAY_DATE":null,"REV_AT_EPOCH":"130","NORAD_CAT_ID":"53225","EPOCH":"2022-08-23T22:00:01.999584","RCS_SIZE":"LARGE","LAUNCH_DATE":"2022-07-22","TLE_LINE1":"1 53225U 22084AN  22235.91668981 -.01213966  00000-0 -34498-1 0  9994","ARG_OF_PERICENTER":"122.2022","GP_ID":"210863750","SITE":"AFWTR","INCLINATION":"97.6555","SEMIMAJOR_AXIS":"6826.794","MEAN_MOTION_DDOT":"0.0000000000000","BSTAR":"-0.03449800000000","TIME_SYSTEM":"UTC","CENTER_NAME":"EARTH","MEAN_ELEMENT_THEORY":"SGP4","ELEMENT_SET_NO":"999","APOAPSIS":"449.948","PERIAPSIS":"447.370","REF_FRAME":"TEME","CLASSIFICATION_TYPE":"U","RA_OF_ASC_NODE":"295.8265","OBJECT_ID":"2022-084AN","OBJECT_NAME":"STARLINK-4358"},{"CLASSIFICATION_TYPE":"U","RA_OF_ASC_NODE":"295.8246","OBJECT_NAME":"STARLINK-4359","OBJECT_ID":"2022-084AP","CENTER_NAME":"EARTH","MEAN_ELEMENT_THEORY":"SGP4","ELEMENT_SET_NO":"999","APOAPSIS":"452.220","PERIAPSIS":"449.592","REF_FRAME":"TEME","TIME_SYSTEM":"UTC","SITE":"AFWTR","INCLINATION":"97.6555","SEMIMAJOR_AXIS":"6829.041","MEAN_MOTION_DDOT":"0.0000000000000","BSTAR":"-0.03536000000000","RCS_SIZE":"LARGE","LAUNCH_DATE":"2022-07-22","TLE_LINE1":"1 53226U 22084AP  22235.91668981 -.01213730  00000-0 -35360-1 0  9993","GP_ID":"210863480","ARG_OF_PERICENTER":"121.9531","ECCENTRICITY":"0.00019240","PERIOD":"93.605","DECAY_DATE":null,"EPOCH":"2022-08-23T22:00:01.999584","NORAD_CAT_ID":"53226","REV_AT_EPOCH":"130","MEAN_MOTION_DOT":"-0.01213730","TLE_LINE2":"2 53226  97.6555 295.8246 0001924 121.9531 202.5674 15.38378296  1303","MEAN_ANOMALY":"202.5674","OBJECT_TYPE":"PAYLOAD","FILE":"3545624","MEAN_MOTION":"15.38378296","EPHEMERIS_TYPE":"0","COUNTRY_CODE":"US"},{"CLASSIFICATION_TYPE":"U","OBJECT_ID":"2022-084AQ","OBJECT_NAME":"STARLINK-4366","RA_OF_ASC_NODE":"295.8257","ELEMENT_SET_NO":"999","MEAN_ELEMENT_THEORY":"SGP4","CENTER_NAME":"EARTH","REF_FRAME":"TEME","PERIAPSIS":"446.760","APOAPSIS":"449.283","TIME_SYSTEM":"UTC","INCLINATION":"97.6556","SITE":"AFWTR","BSTAR":"-0.03425600000000","MEAN_MOTION_DDOT":"0.0000000000000","SEMIMAJOR_AXIS":"6826.156","TLE_LINE1":"1 53227U 22084AQ  22235.91668981 -.01214011  00000-0 -34256-1 0  9990","LAUNCH_DATE":"2022-07-22","RCS_SIZE":"LARGE","GP_ID":"210864031","ARG_OF_PERICENTER":"120.1270","PERIOD":"93.546","ECCENTRICITY":"0.00018480","EPOCH":"2022-08-23T22:00:01.999584","REV_AT_EPOCH":"130","NORAD_CAT_ID":"53227","DECAY_DATE":null,"OBJECT_TYPE":"PAYLOAD","FILE":"3545624","TLE_LINE2":"2 53227  97.6556 295.8257 0001848 120.1270 224.6552 15.39353646  1306","MEAN_ANOMALY":"224.6552","MEAN_MOTION_DOT":"-0.01214011","EPHEMERIS_TYPE":"0","MEAN_MOTION":"15.39353646","COUNTRY_CODE":"US"},{"INCLINATION":"97.6555","SITE":"AFWTR","MEAN_MOTION_DDOT":"0.0000000000000","BSTAR":"-0.03517500000000","SEMIMAJOR_AXIS":"6828.568","TIME_SYSTEM":"UTC","ELEMENT_SET_NO":"999","CENTER_NAME":"EARTH","MEAN_ELEMENT_THEORY":"SGP4","APOAPSIS":"451.727","PERIAPSIS":"449.138","REF_FRAME":"TEME","CLASSIFICATION_TYPE":"U","RA_OF_ASC_NODE":"295.8234","OBJECT_NAME":"STARLINK-4365","OBJECT_ID":"2022-084AR","COUNTRY_CODE":"US","FILE":"3545624","OBJECT_TYPE":"PAYLOAD","MEAN_MOTION_DOT":"-0.01213710","MEAN_ANOMALY":"207.9862","TLE_LINE2":"2 53228  97.6555 295.8234 0001896 120.8050 207.9862 15.38538342  1302","MEAN_MOTION":"15.38538342","EPHEMERIS_TYPE":"0","PERIOD":"93.595","ECCENTRICITY":"0.00018960","NORAD_CAT_ID":"53228","EPOCH":"2022-08-23T22:00:01.999584","REV_AT_EPOCH":"130","DECAY_DATE":null,"LAUNCH_DATE":"2022-07-22","TLE_LINE1":"1 53228U 22084AR  22235.91668981 -.01213710  00000-0 -35175-1 0  9997","RCS_SIZE":"LARGE","GP_ID":"210863206","ARG_OF_PERICENTER":"120.8050"},{"DECAY_DATE":null,"REV_AT_EPOCH":"130","NORAD_CAT_ID":"53229","EPOCH":"2022-08-23T22:00:01.999584","ECCENTRICITY":"0.00019940","PERIOD":"93.538","GP_ID":"210863338","ARG_OF_PERICENTER":"129.5247","RCS_SIZE":"LARGE","TLE_LINE1":"1 53229U 22084AS  22235.91668981 -.01214324  00000-0 -34116-1 0  9994","LAUNCH_DATE":"2022-07-22","COUNTRY_CODE":"US","EPHEMERIS_TYPE":"0","MEAN_MOTION":"15.39485432","TLE_LINE2":"2 53229  97.6556 295.8259 0001994 129.5247 218.1284 15.39485432  1308","MEAN_ANOMALY":"218.1284","MEAN_MOTION_DOT":"-0.01214324","OBJECT_TYPE":"PAYLOAD","FILE":"3545624","REF_FRAME":"TEME","APOAPSIS":"448.993","PERIAPSIS":"446.271","MEAN_ELEMENT_THEORY":"SGP4","CENTER_NAME":"EARTH","ELEMENT_SET_NO":"999","OBJECT_NAME":"STARLINK-4367","OBJECT_ID":"2022-084AS","RA_OF_ASC_NODE":"295.8259","CLASSIFICATION_TYPE":"U","SEMIMAJOR_AXIS":"6825.767","BSTAR":"-0.03411600000000","MEAN_MOTION_DDOT":"0.0000000000000","SITE":"AFWTR","INCLINATION":"97.6556","TIME_SYSTEM":"UTC"},{"ELEMENT_SET_NO":"999","MEAN_ELEMENT_THEORY":"SGP4","CENTER_NAME":"EARTH","REF_FRAME":"TEME","APOAPSIS":"449.399","PERIAPSIS":"446.771","CLASSIFICATION_TYPE":"U","OBJECT_NAME":"STARLINK-4364","OBJECT_ID":"2022-084AT","RA_OF_ASC_NODE":"295.8269","INCLINATION":"97.6556","SITE":"AFWTR","BSTAR":"-0.03428400000000","MEAN_MOTION_DDOT":"0.0000000000000","SEMIMAJOR_AXIS":"6826.220","TIME_SYSTEM":"UTC","PERIOD":"93.547","ECCENTRICITY":"0.00019250","EPOCH":"2022-08-23T22:00:01.999584","REV_AT_EPOCH":"130","NORAD_CAT_ID":"53230","DECAY_DATE":null,"TLE_LINE1":"1 53230U 22084AT  22235.91668981 -.01214154  00000-0 -34284-1 0  9993","LAUNCH_DATE":"2022-07-22","RCS_SIZE":"LARGE","GP_ID":"210863068","ARG_OF_PERICENTER":"125.1860","COUNTRY_CODE":"US","OBJECT_TYPE":"PAYLOAD","FILE":"3545624","MEAN_ANOMALY":"218.5167","TLE_LINE2":"2 53230  97.6556 295.8269 0001925 125.1860 218.5167 15.39332114  1300","MEAN_MOTION_DOT":"-0.01214154","EPHEMERIS_TYPE":"0","MEAN_MOTION":"15.39332114"},{"INCLINATION":"97.6556","SITE":"AFWTR","BSTAR":"-0.03397200000000","MEAN_MOTION_DDOT":"0.0000000000000","SEMIMAJOR_AXIS":"6825.407","TIME_SYSTEM":"UTC","ELEMENT_SET_NO":"999","MEAN_ELEMENT_THEORY":"SGP4","CENTER_NAME":"EARTH","REF_FRAME":"TEME","PERIAPSIS":"446.057","APOAPSIS":"448.487","CLASSIFICATION_TYPE":"U","OBJECT_NAME":"STARLINK-4370","OBJECT_ID":"2022-084AU","RA_OF_ASC_NODE":"295.8237","COUNTRY_CODE":"US","FILE":"3545624","OBJECT_TYPE":"PAYLOAD","TLE_LINE2":"2 53231  97.6556 295.8237 0001780 115.2604 235.8065 15.39607102  1302","MEAN_ANOMALY":"235.8065","MEAN_MOTION_DOT":"-0.01214016","EPHEMERIS_TYPE":"0","MEAN_MOTION":"15.39607102","PERIOD":"93.530","ECCENTRICITY":"0.00017800","NORAD_CAT_ID":"53231","EPOCH":"2022-08-23T22:00:01.999584","REV_AT_EPOCH":"130","DECAY_DATE":null,"TLE_LINE1":"1 53231U 22084AU  22235.91668981 -.01214016  00000-0 -33972-1 0  9994","LAUNCH_DATE":"2022-07-22","RCS_SIZE":"LARGE","GP_ID":"210863890","ARG_OF_PERICENTER":"115.2604"},{"REV_AT_EPOCH":"130","NORAD_CAT_ID":"53232","EPOCH":"2022-08-23T22:00:01.999584","DECAY_DATE":null,"PERIOD":"93.535","ECCENTRICITY":"0.00018280","GP_ID":"210863620","ARG_OF_PERICENTER":"119.2197","TLE_LINE1":"1 53232U 22084AV  22235.91668981 -.01214047  00000-0 -34066-1 0  9994","LAUNCH_DATE":"2022-07-22","RCS_SIZE":"LARGE","COUNTRY_CODE":"US","EPHEMERIS_TYPE":"0","MEAN_MOTION":"15.39523702","OBJECT_TYPE":"PAYLOAD","FILE":"3545624","MEAN_ANOMALY":"229.7795","TLE_LINE2":"2 53232  97.6556 295.8245 0001828 119.2197 229.7795 15.39523702  1301","MEAN_MOTION_DOT":"-0.01214047","REF_FRAME":"TEME","APOAPSIS":"448.766","PERIAPSIS":"446.271","ELEMENT_SET_NO":"999","MEAN_ELEMENT_THEORY":"SGP4","CENTER_NAME":"EARTH","OBJECT_NAME":"STARLINK-4371","OBJECT_ID":"2022-084AV","RA_OF_ASC_NODE":"295.8245","CLASSIFICATION_TYPE":"U","BSTAR":"-0.03406600000000","MEAN_MOTION_DDOT":"0.0000000000000","SEMIMAJOR_AXIS":"6825.654","INCLINATION":"97.6556","SITE":"AFWTR","TIME_SYSTEM":"UTC"},{"PERIAPSIS":"446.056","APOAPSIS":"448.487","REF_FRAME":"TEME","ELEMENT_SET_NO":"999","CENTER_NAME":"EARTH","MEAN_ELEMENT_THEORY":"SGP4","RA_OF_ASC_NODE":"295.8228","OBJECT_ID":"2022-084AW","OBJECT_NAME":"STARLINK-4372","CLASSIFICATION_TYPE":"U","MEAN_MOTION_DDOT":"0.0000000000000","BSTAR":"-0.03397200000000","SEMIMAJOR_AXIS":"6825.406","INCLINATION":"97.6556","SITE":"AFWTR","TIME_SYSTEM":"UTC","EPOCH":"2022-08-23T22:00:01.999584","NORAD_CAT_ID":"53233","REV_AT_EPOCH":"130","DECAY_DATE":null,"PERIOD":"93.530","ECCENTRICITY":"0.00017810","GP_ID":"210863751","ARG_OF_PERICENTER":"115.4796","LAUNCH_DATE":"2022-07-22","TLE_LINE1":"1 53233U 22084AW  22235.91668981 -.01214027  00000-0 -33972-1 0  9998","RCS_SIZE":"LARGE","COUNTRY_CODE":"US","MEAN_MOTION":"15.39607393","EPHEMERIS_TYPE":"0","FILE":"3545624","OBJECT_TYPE":"PAYLOAD","MEAN_MOTION_DOT":"-0.01214027","MEAN_ANOMALY":"236.3174","TLE_LINE2":"2 53233  97.6556 295.8228 0001781 115.4796 236.3174 15.39607393  1308"},{"TIME_SYSTEM":"UTC","INCLINATION":"97.6556","SITE":"AFWTR","BSTAR":"-0.03382400000000","MEAN_MOTION_DDOT":"0.0000000000000","SEMIMAJOR_AXIS":"6825.004","CLASSIFICATION_TYPE":"U","OBJECT_NAME":"STARLINK-4368","OBJECT_ID":"2022-084AX","RA_OF_ASC_NODE":"295.8222","ELEMENT_SET_NO":"999","MEAN_ELEMENT_THEORY":"SGP4","CENTER_NAME":"EARTH","REF_FRAME":"TEME","PERIAPSIS":"445.614","APOAPSIS":"448.124","FILE":"3545624","OBJECT_TYPE":"PAYLOAD","MEAN_ANOMALY":"233.7638","TLE_LINE2":"2 53234  97.6556 295.8222 0001839 120.9288 233.7638 15.39743573  1301","MEAN_MOTION_DOT":"-0.01214183","EPHEMERIS_TYPE":"0","MEAN_MOTION":"15.39743573","COUNTRY_CODE":"US","TLE_LINE1":"1 53234U 22084AX  22235.91668981 -.01214183  00000-0 -33824-1 0  9998","LAUNCH_DATE":"2022-07-22","RCS_SIZE":"LARGE","GP_ID":"210863481","ARG_OF_PERICENTER":"120.9288","PERIOD":"93.522","ECCENTRICITY":"0.00018390","EPOCH":"2022-08-23T22:00:01.999584","NORAD_CAT_ID":"53234","REV_AT_EPOCH":"130","DECAY_DATE":null}];
